GLOBALSTAR M001 [-]     
1 25162U 98008A   23286.08102146 -.00000070  00000+0  20606-3 0  9998
2 25162  52.0042 317.6534 0001736  46.3926 331.1507 12.38168422167873
GLOBALSTAR M004 [-]     
1 25163U 98008B   23285.77957819 -.00000028  00000+0  41596-3 0  9993
2 25163  51.9971 125.4324 0003395  23.8676  57.2709 12.63340211184156
GLOBALSTAR M002 [-]     
1 25164U 98008C   23285.83091600 -.00000034  00000+0  84328-3 0  9995
2 25164  52.0041 338.0756 0001625 102.3466 257.7536 11.61495910112792
GLOBALSTAR M003 [-]     
1 25165U 98008D   23285.72776280  .00000031  00000+0  12834-2 0  9996
2 25165  51.9761  67.6768 0008561 136.4070 328.8319 12.11943707158835
GLOBALSTAR M014 [-]     
1 25306U 98023A   23286.23784729 -.00000064  00000+0  25361-3 0  9991
2 25306  51.9826 273.1619 0000922 336.8554  35.5410 11.65460932119696
GLOBALSTAR M015 [-]     
1 25308U 98023C   23285.56017463  .00000025  00000+0  22521-2 0  9992
2 25308  51.9858  14.7702 0012854  67.4265 305.8402 11.48852985123927
